0 IRIDIUM 33 DEB
1 34095U 97051DE  13282.35545123  .00009483  00000-0  32726-2 0  4213
2 34095 086.3909 136.5804 0066608 004.4478 048.3177 14.34503807242584
0 IRIDIUM 33 DEB
1 34095U 97051DE  13283.40208104  .00008660  00000-0  29879-2 0  4227
2 34095 086.3912 136.1420 0066487 001.1936 053.1997 14.34517418242730
0 IRIDIUM 33 DEB
1 34095U 97051DE  13286.07383274  .00006727  00000-0  23194-2 0  4243
2 34095 086.3909 135.0230 0066143 352.7468 170.7001 14.34549401243119
0 IRIDIUM 33 DEB
1 34095U 97051DE  13287.37812108  .00007444  00000-0  25666-2 0  4254
2 34095 086.3905 134.4767 0065969 348.6091 066.4585 14.34562935243300
0 IRIDIUM 33 DEB
1 34095U 97051DE  13288.78611517  .00009893  00000-0  34103-2 0  4268
2 34095 086.3900 133.8869 0065770 344.0987 137.9371 14.34592742243503
0 IRIDIUM 33 DEB
1 34095U 97051DE  13290.11249171  .00009219  00000-0  31771-2 0  4272
2 34095 086.3894 133.3312 0065601 339.8821 147.9880 14.34611289243699
0 IRIDIUM 33 DEB
1 34095U 97051DE  13291.35381419  .00008828  00000-0  30414-2 0  4280
2 34095 086.3891 132.8112 0065418 335.8735 078.9307 14.34629528243876
0 IRIDIUM 33 DEB
1 34095U 97051DE  13292.53450914  .00008356  00000-0  28779-2 0  4296
2 34095 086.3889 132.3165 0065268 332.0463 056.8416 14.34647524244048
0 IRIDIUM 33 DEB
1 34095U 97051DE  13293.80974220  .00009302  00000-0  32034-2 0  4301
2 34095 086.3890 131.7819 0065135 327.8798 163.1327 14.34664051244222
0 IRIDIUM 33 DEB
1 34095U 97051DE  13294.84221186  .00010873  00000-0  37438-2 0  4311
2 34095 086.3892 131.3493 0064996 324.5479 095.6221 14.34679345244372
0 IRIDIUM 33 DEB
1 34095U 97051DE  13296.03959653  .00010102  00000-0  34772-2 0  4325
2 34095 086.3895 130.8476 0064869 320.6470 159.9685 14.34699475244540
